[{"OBJECT_NAME":"STARLINK-11339 [DTC]","OBJECT_ID":"2024-195E","EPOCH":"2026-03-09T07:31:47.337312","MEAN_MOTION":15.69712854,"ECCENTRICITY":6.555e-5,"INCLINATION":53.1585,"RA_OF_ASC_NODE":28.1813,"ARG_OF_PERICENTER":98.2317,"MEAN_ANOMALY":261.8776,"EPHEMERIS_TYPE":0,"CLASSIFICATION_TYPE":"U","NORAD_CAT_ID":61691,"ELEMENT_SET_NO":999,"REV_AT_EPOCH":7897,"BSTAR":-9.659e-9,"MEAN_MOTION_DOT":-5.89e-6,"MEAN_MOTION_DDOT":0},{"OBJECT_NAME":"IRIDIUM 82","OBJECT_ID":"1998-051A","EPOCH":"2026-03-09T17:14:32.931744","MEAN_MOTION":15.58179803,"ECCENTRICITY":0.0047439,"INCLINATION":86.3594,"RA_OF_ASC_NODE":336.9899,"ARG_OF_PERICENTER":358.1791,"MEAN_ANOMALY":1.9292,"EPHEMERIS_TYPE":0,"CLASSIFICATION_TYPE":"U","NORAD_CAT_ID":25467,"ELEMENT_SET_NO":999,"REV_AT_EPOCH":46488,"BSTAR":0.0011204022,"MEAN_MOTION_DOT":0.00089782,"MEAN_MOTION_DDOT":0}]
